{
  "type": "FeatureCollection",
  "features": [
    {
      "type": "Feature",
      "properties": {
        "norad_id": 22490,
        "name": "SCD 1",
        "group": "resource",
        "lat": 23.72368297263313,
        "lon": -84.35429406902583,
        "alt_km": 704.829949136355,
        "timestamp": "2025-12-24T16:52:41.156585+00:00",
        "meta_object_name": "SCD 1",
        "meta_object_id": "1993-009B",
        "meta_epoch": "2025-12-24T00:42:27.383040",
        "meta_mean_motion": 14.46006187,
        "meta_eccentricity": 0.0042181,
        "meta_inclination": 24.9677,
        "meta_ra_of_asc_node": 208.9929,
        "meta_arg_of_pericenter": 84.3054,
        "meta_mean_anomaly": 73.8287,
        "meta_ephemeris_type": 0,
        "meta_classification_type": "U",
        "meta_norad_cat_id": 22490,
        "meta_element_set_no": 999,
        "meta_rev_at_epoch": 73573,
        "meta_bstar": 7.7314511e-05,
        "meta_mean_motion_dot": 4.68e-06,
        "meta_mean_motion_ddot": 0,
        "tle_line1": "1 22490U 93009B   25358.02948360  .00000468  00000+0  77315-4 0  9997",
        "tle_line2": "2 22490  24.9677 208.9929 0042181  84.3054  73.8287 14.46006187735730"
      },
      "geometry": {
        "type": "Point",
        "coordinates": [
          -84.35429406902583,
          23.72368297263313
        ]
      }
    },
    {
      "type": "Feature",
      "properties": {
        "norad_id": 25397,
        "name": "TECHSAT 1B (GO-32)",
        "group": "resource",
        "lat": -76.0439064905111,
        "lon": 21.778593164763283,
        "alt_km": 818.4080584962412,
        "timestamp": "2025-12-24T16:52:41.156646+00:00",
        "meta_object_name": "TECHSAT 1B (GO-32)",
        "meta_object_id": "1998-043D",
        "meta_epoch": "2025-12-23T22:42:18.147168",
        "meta_mean_motion": 14.24380036,
        "meta_eccentricity": 0.0001695,
        "meta_inclination": 98.9932,
        "meta_ra_of_asc_node": 341.4173,
        "meta_arg_of_pericenter": 39.0327,
        "meta_mean_anomaly": 321.0973,
        "meta_ephemeris_type": 0,
        "meta_classification_type": "U",
        "meta_norad_cat_id": 25397,
        "meta_element_set_no": 999,
        "meta_rev_at_epoch": 42638,
        "meta_bstar": 5.343e-05,
        "meta_mean_motion_dot": 7.7e-07,
        "meta_mean_motion_ddot": 0,
        "tle_line1": "1 25397U 98043D   25357.94604337  .00000077  00000+0  53430-4 0  9990",
        "tle_line2": "2 25397  98.9932 341.4173 0001695  39.0327 321.0973 14.24380036426385"
      },
      "geometry": {
        "type": "Point",
        "coordinates": [
          21.778593164763283,
          -76.0439064905111
        ]
      }
    },
    {
      "type": "Feature",
      "properties": {
        "norad_id": 25504,
        "name": "SCD 2",
        "group": "resource",
        "lat": 24.551182566501485,
        "lon": 146.78796816676842,
        "alt_km": 722.854854944846,
        "timestamp": "2025-12-24T16:52:41.156664+00:00",
        "meta_object_name": "SCD 2",
        "meta_object_id": "1998-060A",
        "meta_epoch": "2025-12-23T23:01:37.909056",
        "meta_mean_motion": 14.4542914,
        "meta_eccentricity": 0.0017059,
        "meta_inclination": 24.9953,
        "meta_ra_of_asc_node": 72.7138,
        "meta_arg_of_pericenter": 71.7341,
        "meta_mean_anomaly": 89.7798,
        "meta_ephemeris_type": 0,
        "meta_classification_type": "U",
        "meta_norad_cat_id": 25504,
        "meta_element_set_no": 999,
        "meta_rev_at_epoch": 43494,
        "meta_bstar": 6.9047e-05,
        "meta_mean_motion_dot": 4.29e-06,
        "meta_mean_motion_ddot": 0,
        "tle_line1": "1 25504U 98060A   25357.95946654  .00000429  00000+0  69047-4 0  9993",
        "tle_line2": "2 25504  24.9953  72.7138 0017059  71.7341  89.7798 14.45429140434949"
      },
      "geometry": {
        "type": "Point",
        "coordinates": [
          146.78796816676842,
          24.551182566501485
        ]
      }
    },
    {
      "type": "Feature",
      "properties": {
        "norad_id": 25757,
        "name": "DLR-TUBSAT",
        "group": "resource",
        "lat": -78.4866712183232,
        "lon": 115.1760068172152,
        "alt_km": 728.0610459472409,
        "timestamp": "2025-12-24T16:52:41.156678+00:00",
        "meta_object_name": "DLR-TUBSAT",
        "meta_object_id": "1999-029B",
        "meta_epoch": "2025-12-17T13:22:10.787520",
        "meta_mean_motion": 14.52359578,
        "meta_eccentricity": 0.00141996,
        "meta_inclination": 98.6566,
        "meta_ra_of_asc_node": 336.2196,
        "meta_arg_of_pericenter": 177.8976,
        "meta_mean_anomaly": 182.2281,
        "meta_ephemeris_type": 0,
        "meta_classification_type": "U",
        "meta_norad_cat_id": 25757,
        "meta_element_set_no": 999,
        "meta_rev_at_epoch": 40688,
        "meta_bstar": 3.7650132e-05,
        "meta_mean_motion_dot": 1.05e-06,
        "meta_mean_motion_ddot": 0,
        "tle_line1": "1 25757U 99029B   25351.55706930  .00000105  00000+0  37650-4 0  9996",
        "tle_line2": "2 25757  98.6566 336.2196 0014199 177.8976 182.2281 14.52359578406886"
      },
      "geometry": {
        "type": "Point",
        "coordinates": [
          115.1760068172152,
          -78.4866712183232
        ]
      }
    },
    {
      "type": "Feature",
      "properties": {
        "norad_id": 25994,
        "name": "TERRA",
        "group": "resource",
        "lat": -27.471402482816227,
        "lon": 54.12667334413233,
        "alt_km": 696.3407524475751,
        "timestamp": "2025-12-24T16:52:41.156692+00:00",
        "meta_object_name": "TERRA",
        "meta_object_id": "1999-068A",
        "meta_epoch": "2025-12-24T05:40:52.358304",
        "meta_mean_motion": 14.6091434,
        "meta_eccentricity": 0.0003447,
        "meta_inclination": 97.9732,
        "meta_ra_of_asc_node": 49.4984,
        "meta_arg_of_pericenter": 71.7515,
        "meta_mean_anomaly": 328.4472,
        "meta_ephemeris_type": 0,
        "meta_classification_type": "U",
        "meta_norad_cat_id": 25994,
        "meta_element_set_no": 999,
        "meta_rev_at_epoch": 38406,
        "meta_bstar": 0.00010701804,
        "meta_mean_motion_dot": 4.79e-06,
        "meta_mean_motion_ddot": 0,
        "tle_line1": "1 25994U 99068A   25358.23671711  .00000479  00000+0  10702-3 0  9994",
        "tle_line2": "2 25994  97.9732  49.4984 0003447  71.7515 328.4472 14.60914340384063"
      },
      "geometry": {
        "type": "Point",
        "coordinates": [
          54.12667334413233,
          -27.471402482816227
        ]
      }
    },
    {
      "type": "Feature",
      "properties": {
        "norad_id": 27004,
        "name": "MAROC-TUBSAT",
        "group": "resource",
        "lat": 23.31585107488698,
        "lon": 163.08931387449655,
        "alt_km": 1010.943209880058,
        "timestamp": "2025-12-24T16:52:41.156705+00:00",
        "meta_object_name": "MAROC-TUBSAT",
        "meta_object_id": "2001-056D",
        "meta_epoch": "2025-12-24T05:22:03.772992",
        "meta_mean_motion": 13.70253431,
        "meta_eccentricity": 0.00192509,
        "meta_inclination": 99.7916,
        "meta_ra_of_asc_node": 166.8698,
        "meta_arg_of_pericenter": 229.7018,
        "meta_mean_anomaly": 309.3951,
        "meta_ephemeris_type": 0,
        "meta_classification_type": "U",
        "meta_norad_cat_id": 27004,
        "meta_element_set_no": 999,
        "meta_rev_at_epoch": 20222,
        "meta_bstar": 2.0617845e-05,
        "meta_mean_motion_dot": -2.8e-07,
        "meta_mean_motion_ddot": 0,
        "tle_line1": "1 27004U 01056D   25358.22365478 -.00000028  00000+0  20618-4 0  9996",
        "tle_line2": "2 27004  99.7916 166.8698 0019250 229.7018 309.3951 13.70253431202223"
      },
      "geometry": {
        "type": "Point",
        "coordinates": [
          163.08931387449655,
          23.31585107488698
        ]
      }
    },
    {
      "type": "Feature",
      "properties": {
        "norad_id": 27424,
        "name": "AQUA",
        "group": "resource",
        "lat": -65.73037770949625,
        "lon": 120.63414780561105,
        "alt_km": 695.327775052886,
        "timestamp": "2025-12-24T16:52:41.156717+00:00",
        "meta_object_name": "AQUA",
        "meta_object_id": "2002-022A",
        "meta_epoch": "2025-12-23T20:08:03.450912",
        "meta_mean_motion": 14.61824731,
        "meta_eccentricity": 0.00015094,
        "meta_inclination": 98.4053,
        "meta_ra_of_asc_node": 318.8992,
        "meta_arg_of_pericenter": 108.9448,
        "meta_mean_anomaly": 272.2576,
        "meta_ephemeris_type": 0,
        "meta_classification_type": "U",
        "meta_norad_cat_id": 27424,
        "meta_element_set_no": 999,
        "meta_rev_at_epoch": 25765,
        "meta_bstar": 0.00020597954,
        "meta_mean_motion_dot": 9.8e-06,
        "meta_mean_motion_ddot": 0,
        "tle_line1": "1 27424U 02022A   25357.83892883  .00000980  00000+0  20598-3 0  9999",
        "tle_line2": "2 27424  98.4053 318.8992 0001509 108.9448 272.2576 14.61824731257652"
      },
      "geometry": {
        "type": "Point",
        "coordinates": [
          120.63414780561105,
          -65.73037770949625
        ]
      }
    }
  ]
}